{
    "links": {
        "self": "http://www.neowsapp.com/rest/v1/neo/3573157?api_key=iIulBulltgU6a56xZRHN4H3l9WmuAYTsLGpBGhQ2"
    },
    "id": "3573157",
    "neo_reference_id": "3573157",
    "name": "(2011 OR5)",
    "designation": "2011 OR5",
    "nasa_jpl_url": "http://ssd.jpl.nasa.gov/sbdb.cgi?sstr=3573157",
    "absolute_magnitude_h": 25.9,
    "estimated_diameter": {
        "kilometers": {
            "estimated_diameter_min": 0.0175612318,
            "estimated_diameter_max": 0.0392681082
        },
        "meters": {
            "estimated_diameter_min": 17.561231848,
            "estimated_diameter_max": 39.2681081809
        },
        "miles": {
            "estimated_diameter_min": 0.0109120402,
            "estimated_diameter_max": 0.0244000636
        },
        "feet": {
            "estimated_diameter_min": 57.6155918963,
            "estimated_diameter_max": 128.8323800441
        }
    },
    "is_potentially_hazardous_asteroid": false,
    "close_approach_data": [
        {
            "close_approach_date": "1978-08-18",
            "close_approach_date_full": "1978-Aug-18 23:55",
            "epoch_date_close_approach": 272332500000,
            "relative_velocity": {
                "kilometers_per_second": "18.8370059378",
                "kilometers_per_hour": "67813.221376094",
                "miles_per_hour": "42136.4985822735"
            },
            "miss_distance": {
                "astronomical": "0.4676662281",
                "lunar": "181.9221627309",
                "kilometers": "69961871.594694147",
                "miles": "43472291.1720153486"
            },
            "orbiting_body": "Earth"
        },
        {
            "close_approach_date": "2006-08-14",
            "close_approach_date_full": "2006-Aug-14 08:36",
            "epoch_date_close_approach": 1155544560000,
            "relative_velocity": {
                "kilometers_per_second": "16.0952355586",
                "kilometers_per_hour": "57942.8480108246",
                "miles_per_hour": "36003.4324209482"
            },
            "miss_distance": {
                "astronomical": "0.3724823069",
                "lunar": "144.8956173841",
                "kilometers": "55722559.724926303",
                "miles": "34624393.0586288614"
            },
            "orbiting_body": "Earth"
        },
        {
            "close_approach_date": "2011-07-15",
            "close_approach_date_full": "2011-Jul-15 13:20",
            "epoch_date_close_approach": 1310736000000,
            "relative_velocity": {
                "kilometers_per_second": "5.7147396208",
                "kilometers_per_hour": "20573.0626348458",
                "miles_per_hour": "12783.3010577462"
            },
            "miss_distance": {
                "astronomical": "0.0305235356",
                "lunar": "11.8736553484",
                "kilometers": "4566255.910629172",
                "miles": "2837339.8536676936"
            },
            "orbiting_body": "Earth"
        },
        {
            "close_approach_date": "2016-04-27",
            "close_approach_date_full": "2016-Apr-27 05:45",
            "epoch_date_close_approach": 1461735900000,
            "relative_velocity": {
                "kilometers_per_second": "10.4239241364",
                "kilometers_per_hour": "37526.1268911282",
                "miles_per_hour": "23317.275900768"
            },
            "miss_distance": {
                "astronomical": "0.2053324174",
                "lunar": "79.8743103686",
                "kilometers": "30717292.284990938",
                "miles": "19086840.3573454244"
            },
            "orbiting_body": "Earth"
        },
        {
            "close_approach_date": "2105-04-14",
            "close_approach_date_full": "2105-Apr-14 04:31",
            "epoch_date_close_approach": 4269126660000,
            "relative_velocity": {
                "kilometers_per_second": "18.1688954708",
                "kilometers_per_hour": "65408.0236947022",
                "miles_per_hour": "40642.002278522"
            },
            "miss_distance": {
                "astronomical": "0.4577293234",
                "lunar": "178.0567068026",
                "kilometers": "68475331.817181158",
                "miles": "42548598.1864816604"
            },
            "orbiting_body": "Earth"
        }
    ],
    "orbital_data": {
        "orbit_id": "8",
        "orbit_determination_date": "2017-04-06 08:53:08",
        "first_observation_date": "2011-07-26",
        "last_observation_date": "2011-09-01",
        "data_arc_in_days": 37,
        "observations_used": 19,
        "orbit_uncertainty": "7",
        "minimum_orbit_intersection": ".0299071",
        "jupiter_tisserand_invariant": "4.719",
        "epoch_osculation": "2459000.5",
        "eccentricity": ".2798907189928836",
        "semi_major_axis": "1.395655138248626",
        "inclination": "4.772060629290779",
        "ascending_node_longitude": "307.9643616606507",
        "orbital_period": "602.2344638491276",
        "perihelion_distance": "1.005024218138106",
        "perihelion_argument": "314.3221308809005",
        "aphelion_distance": "1.786286058359147",
        "perihelion_time": "2458742.674217668819",
        "mean_anomaly": "154.1215045150218",
        "mean_motion": ".5977738266572994",
        "equinox": "J2000",
        "orbit_class": {
            "orbit_class_type": "APO",
            "orbit_class_description": "Near-Earth asteroid orbits which cross the Earth’s orbit similar to that of 1862 Apollo",
            "orbit_class_range": "a (semi-major axis) > 1.0 AU; q (perihelion) < 1.017 AU"
        }
    },
    "is_sentry_object": false
}